CCSDS_OMM_VERS = 2.0
CREATION_DATE  = 
ORIGINATOR     = 

OBJECT_NAME    = SL-14 R/B
OBJECT_ID      = 1986-046B
CENTER_NAME    = EARTH
REF_FRAME      = TEME
TIME_SYSTEM    = UTC
MEAN_ELEMENT_THEORY = SGP/SGP4

EPOCH          = 2026-01-04T14:47:59.958816
MEAN_MOTION    = 14.85516571
ECCENTRICITY   = .00245315
INCLINATION    = 82.4830
RA_OF_ASC_NODE = 140.7098
ARG_OF_PERICENTER = 80.4408
MEAN_ANOMALY   = 279.9579

EPHEMERIS_TYPE = 0
CLASSIFICATION_TYPE = U
NORAD_CAT_ID   = 16792
ELEMENT_SET_NO = 999
REV_AT_EPOCH   = 11689
BSTAR          = .98859185E-4
MEAN_MOTION_DOT = .882E-5
MEAN_MOTION_DDOT = 0

CCSDS_OMM_VERS = 2.0
CREATION_DATE  = 
ORIGINATOR     = 

OBJECT_NAME    = SL-14 R/B
OBJECT_ID      = 1986-055B
CENTER_NAME    = EARTH
REF_FRAME      = TEME
TIME_SYSTEM    = UTC
MEAN_ELEMENT_THEORY = SGP/SGP4

EPOCH          = 2026-01-04T14:46:23.212416
MEAN_MOTION    = 14.85559739
ECCENTRICITY   = .00188553
INCLINATION    = 82.5198
RA_OF_ASC_NODE = 186.8767
ARG_OF_PERICENTER = 179.9396
MEAN_ANOMALY   = 248.5424

EPHEMERIS_TYPE = 0
CLASSIFICATION_TYPE = U
NORAD_CAT_ID   = 16882
ELEMENT_SET_NO = 999
REV_AT_EPOCH   = 10985
BSTAR          = .97480366E-4
MEAN_MOTION_DOT = .869E-5
MEAN_MOTION_DDOT = 0

CCSDS_OMM_VERS = 2.0
CREATION_DATE  = 
ORIGINATOR     = 

OBJECT_NAME    = AJISAI (EGS)
OBJECT_ID      = 1986-061A
CENTER_NAME    = EARTH
REF_FRAME      = TEME
TIME_SYSTEM    = UTC
MEAN_ELEMENT_THEORY = SGP/SGP4

EPOCH          = 2026-01-04T15:09:26.669088
MEAN_MOTION    = 12.44514640
ECCENTRICITY   = .0011313
INCLINATION    = 50.0102
RA_OF_ASC_NODE = 290.3275
ARG_OF_PERICENTER = 123.3689
MEAN_ANOMALY   = 310.5213

EPHEMERIS_TYPE = 0
CLASSIFICATION_TYPE = U
NORAD_CAT_ID   = 16908
ELEMENT_SET_NO = 999
REV_AT_EPOCH   = 46002
BSTAR          = .20825467E-3
MEAN_MOTION_DOT = -.68E-6
MEAN_MOTION_DDOT = 0

CCSDS_OMM_VERS = 2.0
CREATION_DATE  = 
ORIGINATOR     = 

OBJECT_NAME    = COSMOS 1812
OBJECT_ID      = 1987-003A
CENTER_NAME    = EARTH
REF_FRAME      = TEME
TIME_SYSTEM    = UTC
MEAN_ELEMENT_THEORY = SGP/SGP4

EPOCH          = 2026-01-04T04:17:59.289216
MEAN_MOTION    = 15.81173351
ECCENTRICITY   = .00045781
INCLINATION    = 82.4860
RA_OF_ASC_NODE = 267.6380
ARG_OF_PERICENTER = 59.7974
MEAN_ANOMALY   = 300.3747

EPHEMERIS_TYPE = 0
CLASSIFICATION_TYPE = U
NORAD_CAT_ID   = 17295
ELEMENT_SET_NO = 999
REV_AT_EPOCH   = 13419
BSTAR          = .83830597E-3
MEAN_MOTION_DOT = .166397E-2
MEAN_MOTION_DDOT = 0

CCSDS_OMM_VERS = 2.0
CREATION_DATE  = 
ORIGINATOR     = 

OBJECT_NAME    = SL-14 R/B
OBJECT_ID      = 1987-024B
CENTER_NAME    = EARTH
REF_FRAME      = TEME
TIME_SYSTEM    = UTC
MEAN_ELEMENT_THEORY = SGP/SGP4

EPOCH          = 2026-01-04T09:41:45.401280
MEAN_MOTION    = 14.86055391
ECCENTRICITY   = .00195387
INCLINATION    = 82.5288
RA_OF_ASC_NODE = 153.1638
ARG_OF_PERICENTER = 112.0314
MEAN_ANOMALY   = 248.2981

EPHEMERIS_TYPE = 0
CLASSIFICATION_TYPE = U
NORAD_CAT_ID   = 17567
ELEMENT_SET_NO = 999
REV_AT_EPOCH   = 7858
BSTAR          = .10144192E-3
MEAN_MOTION_DOT = .915E-5
MEAN_MOTION_DDOT = 0

CCSDS_OMM_VERS = 2.0
CREATION_DATE  = 
ORIGINATOR     = 

OBJECT_NAME    = COSMOS 1833
OBJECT_ID      = 1987-027A
CENTER_NAME    = EARTH
REF_FRAME      = TEME
TIME_SYSTEM    = UTC
MEAN_ELEMENT_THEORY = SGP/SGP4

EPOCH          = 2026-01-04T15:41:46.489920
MEAN_MOTION    = 14.13036104
ECCENTRICITY   = .00236247
INCLINATION    = 70.9184
RA_OF_ASC_NODE = 100.6103
ARG_OF_PERICENTER = 299.8969
MEAN_ANOMALY   = 59.9805

EPHEMERIS_TYPE = 0
CLASSIFICATION_TYPE = U
NORAD_CAT_ID   = 17589
ELEMENT_SET_NO = 999
REV_AT_EPOCH   = 127
BSTAR          = .21684021E-3
MEAN_MOTION_DOT = .358E-5
MEAN_MOTION_DDOT = 0

CCSDS_OMM_VERS = 2.0
CREATION_DATE  = 
ORIGINATOR     = 

OBJECT_NAME    = SL-16 R/B
OBJECT_ID      = 1987-027B
CENTER_NAME    = EARTH
REF_FRAME      = TEME
TIME_SYSTEM    = UTC
MEAN_ELEMENT_THEORY = SGP/SGP4

EPOCH          = 2026-01-04T12:44:23.935776
MEAN_MOTION    = 14.17156504
ECCENTRICITY   = .00069014
INCLINATION    = 71.0031
RA_OF_ASC_NODE = 51.6934
ARG_OF_PERICENTER = 235.6640
MEAN_ANOMALY   = 124.3832

EPHEMERIS_TYPE = 0
CLASSIFICATION_TYPE = U
NORAD_CAT_ID   = 17590
ELEMENT_SET_NO = 999
REV_AT_EPOCH   = 625
BSTAR          = .91649743E-4
MEAN_MOTION_DOT = .137E-5
MEAN_MOTION_DDOT = 0

CCSDS_OMM_VERS = 2.0
CREATION_DATE  = 
ORIGINATOR     = 

OBJECT_NAME    = SL-14 R/B
OBJECT_ID      = 1987-038B
CENTER_NAME    = EARTH
REF_FRAME      = TEME
TIME_SYSTEM    = UTC
MEAN_ELEMENT_THEORY = SGP/SGP4

EPOCH          = 2026-01-04T10:23:51.199008
MEAN_MOTION    = 14.85289284
ECCENTRICITY   = .00198699
INCLINATION    = 82.5013
RA_OF_ASC_NODE = 357.3236
ARG_OF_PERICENTER = 21.5261
MEAN_ANOMALY   = 338.6786

EPHEMERIS_TYPE = 0
CLASSIFICATION_TYPE = U
NORAD_CAT_ID   = 17912
ELEMENT_SET_NO = 999
REV_AT_EPOCH   = 6969
BSTAR          = .95870306E-4
MEAN_MOTION_DOT = .85E-5
MEAN_MOTION_DDOT = 0

CCSDS_OMM_VERS = 2.0
CREATION_DATE  = 
ORIGINATOR     = 

OBJECT_NAME    = COSMOS 1844
OBJECT_ID      = 1987-041A
CENTER_NAME    = EARTH
REF_FRAME      = TEME
TIME_SYSTEM    = UTC
MEAN_ELEMENT_THEORY = SGP/SGP4

EPOCH          = 2026-01-04T14:46:03.507168
MEAN_MOTION    = 14.14538965
ECCENTRICITY   = .00287633
INCLINATION    = 70.8988
RA_OF_ASC_NODE = 169.3224
ARG_OF_PERICENTER = 120.9948
MEAN_ANOMALY   = 239.4005

EPHEMERIS_TYPE = 0
CLASSIFICATION_TYPE = U
NORAD_CAT_ID   = 17973
ELEMENT_SET_NO = 999
REV_AT_EPOCH   = 99452
BSTAR          = .9607562E-4
MEAN_MOTION_DOT = .137E-5
MEAN_MOTION_DDOT = 0

CCSDS_OMM_VERS = 2.0
CREATION_DATE  = 
ORIGINATOR     = 

OBJECT_NAME    = SL-14 R/B
OBJECT_ID      = 1987-055B
CENTER_NAME    = EARTH
REF_FRAME      = TEME
TIME_SYSTEM    = UTC
MEAN_ELEMENT_THEORY = SGP/SGP4

EPOCH          = 2026-01-04T14:57:27.021888
MEAN_MOTION    = 14.85549225
ECCENTRICITY   = .00196455
INCLINATION    = 82.4982
RA_OF_ASC_NODE = 49.4197
ARG_OF_PERICENTER = 222.3282
MEAN_ANOMALY   = 137.6420

EPHEMERIS_TYPE = 0
CLASSIFICATION_TYPE = U
NORAD_CAT_ID   = 18153
ELEMENT_SET_NO = 999
REV_AT_EPOCH   = 6042
BSTAR          = .82837217E-4
MEAN_MOTION_DOT = .742E-5
MEAN_MOTION_DDOT = 0

CCSDS_OMM_VERS = 2.0
CREATION_DATE  = 
ORIGINATOR     = 

OBJECT_NAME    = COSMOS 1867
OBJECT_ID      = 1987-060A
CENTER_NAME    = EARTH
REF_FRAME      = TEME
TIME_SYSTEM    = UTC
MEAN_ELEMENT_THEORY = SGP/SGP4

EPOCH          = 2026-01-04T15:46:40.710432
MEAN_MOTION    = 14.31491142
ECCENTRICITY   = .00138018
INCLINATION    = 65.0109
RA_OF_ASC_NODE = 126.0243
ARG_OF_PERICENTER = 273.4699
MEAN_ANOMALY   = 86.4807

EPHEMERIS_TYPE = 0
CLASSIFICATION_TYPE = U
NORAD_CAT_ID   = 18187
ELEMENT_SET_NO = 999
REV_AT_EPOCH   = 1077
BSTAR          = .50343244E-4
MEAN_MOTION_DOT = .34E-6
MEAN_MOTION_DDOT = 0

CCSDS_OMM_VERS = 2.0
CREATION_DATE  = 
ORIGINATOR     = 

OBJECT_NAME    = SL-14 R/B
OBJECT_ID      = 1988-001B
CENTER_NAME    = EARTH
REF_FRAME      = TEME
TIME_SYSTEM    = UTC
MEAN_ELEMENT_THEORY = SGP/SGP4

EPOCH          = 2026-01-04T05:02:39.355872
MEAN_MOTION    = 14.85451609
ECCENTRICITY   = .0019613
INCLINATION    = 82.5127
RA_OF_ASC_NODE = 256.0139
ARG_OF_PERICENTER = 91.4214
MEAN_ANOMALY   = 268.9249

EPHEMERIS_TYPE = 0
CLASSIFICATION_TYPE = U
NORAD_CAT_ID   = 18749
ELEMENT_SET_NO = 999
REV_AT_EPOCH   = 3245
BSTAR          = .84652E-4
MEAN_MOTION_DOT = .756E-5
MEAN_MOTION_DDOT = 0

