SL-14 R/B               
1 16792U 86046B   26004.61666619  .00000882  00000+0  98859-4 0  9992
2 16792  82.4830 140.7098 0024531  80.4408 279.9579 14.85516571116896
SL-14 R/B               
1 16882U 86055B   26004.61554644  .00000869  00000+0  97480-4 0  9990
2 16882  82.5198 186.8767 0018855 179.9396 248.5424 14.85559739109852
AJISAI (EGS)            
1 16908U 86061A   26004.63155867 -.00000068  00000+0  20825-3 0  9992
2 16908  50.0102 290.3275 0011313 123.3689 310.5213 12.44514640460021
COSMOS 1812             
1 17295U 87003A   26004.17915844  .00166397  00000+0  83831-3 0  9990
2 17295  82.4860 267.6380 0004578  59.7974 300.3747 15.81173351134198
SL-14 R/B               
1 17567U 87024B   26004.40399770  .00000915  00000+0  10144-3 0  9995
2 17567  82.5288 153.1638 0019538 112.0314 248.2981 14.86055391 78580
COSMOS 1833             
1 17589U 87027A   26004.65401030  .00000358  00000+0  21684-3 0  9994
2 17589  70.9184 100.6103 0023624 299.8969  59.9805 14.13036104  1270
SL-16 R/B               
1 17590U 87027B   26004.53083259  .00000137  00000+0  91650-4 0  9998
2 17590  71.0031  51.6934 0006901 235.6640 124.3832 14.17156504  6256
SL-14 R/B               
1 17912U 87038B   26004.43323147  .00000850  00000+0  95870-4 0  9990
2 17912  82.5013 357.3236 0019869  21.5261 338.6786 14.85289284 69692
COSMOS 1844             
1 17973U 87041A   26004.61531837  .00000137  00000+0  96076-4 0  9995
2 17973  70.8988 169.3224 0028763 120.9948 239.4005 14.14538965994523
SL-14 R/B               
1 18153U 87055B   26004.62322942  .00000742  00000+0  82837-4 0  9999
2 18153  82.4982  49.4197 0019645 222.3282 137.6420 14.85549225 60423
COSMOS 1867             
1 18187U 87060A   26004.65741563  .00000034  00000+0  50343-4 0  9990
2 18187  65.0109 126.0243 0013801 273.4699  86.4807 14.31491142 10777
SL-14 R/B               
1 18749U 88001B   26004.21017773  .00000756  00000+0  84652-4 0  9992
2 18749  82.5127 256.0139 0019613  91.4214 268.9249 14.85451609 32450
